STARLINK-2352
1 17892C 21021AJ  21326.10193707 -.00008307  00000-0 -55671-3 0  3269
2 17892  53.0544 123.2776 0001683  82.3855 175.5567 15.06399349    16
